{
    "links": {
        "self": "http://www.neowsapp.com/rest/v1/neo/3427525?api_key=iIulBulltgU6a56xZRHN4H3l9WmuAYTsLGpBGhQ2"
    },
    "id": "3427525",
    "neo_reference_id": "3427525",
    "name": "(2008 SW1)",
    "designation": "2008 SW1",
    "nasa_jpl_url": "http://ssd.jpl.nasa.gov/sbdb.cgi?sstr=3427525",
    "absolute_magnitude_h": 21.9,
    "estimated_diameter": {
        "kilometers": {
            "estimated_diameter_min": 0.1108038821,
            "estimated_diameter_max": 0.2477650126
        },
        "meters": {
            "estimated_diameter_min": 110.8038821264,
            "estimated_diameter_max": 247.7650126055
        },
        "miles": {
            "estimated_diameter_min": 0.068850319,
            "estimated_diameter_max": 0.1539539936
        },
        "feet": {
            "estimated_diameter_min": 363.5298086356,
            "estimated_diameter_max": 812.8773639568
        }
    },
    "is_potentially_hazardous_asteroid": false,
    "close_approach_data": [
        {
            "close_approach_date": "2008-09-29",
            "close_approach_date_full": "2008-Sep-29 06:33",
            "epoch_date_close_approach": 1222669980000,
            "relative_velocity": {
                "kilometers_per_second": "10.6850108323",
                "kilometers_per_hour": "38466.0389961594",
                "miles_per_hour": "23901.3007306969"
            },
            "miss_distance": {
                "astronomical": "0.1860383504",
                "lunar": "72.3689183056",
                "kilometers": "27830940.958153648",
                "miles": "17293344.8083424224"
            },
            "orbiting_body": "Earth"
        }
    ],
    "orbital_data": {
        "orbit_id": "18",
        "orbit_determination_date": "2017-04-06 09:02:54",
        "first_observation_date": "2008-09-23",
        "last_observation_date": "2008-10-21",
        "data_arc_in_days": 28,
        "observations_used": 71,
        "orbit_uncertainty": "6",
        "minimum_orbit_intersection": ".158971",
        "jupiter_tisserand_invariant": "3.217",
        "epoch_osculation": "2459000.5",
        "eccentricity": ".5337048783280146",
        "semi_major_axis": "2.482609686111843",
        "inclination": "16.28956804660428",
        "ascending_node_longitude": "189.374597824084",
        "orbital_period": "1428.765961326294",
        "perihelion_distance": "1.157628785649571",
        "perihelion_argument": "185.2714098365416",
        "aphelion_distance": "3.807590586574114",
        "perihelion_time": "2459021.527321508087",
        "mean_anomaly": "354.7018364464084",
        "mean_motion": ".2519656890942581",
        "equinox": "J2000",
        "orbit_class": {
            "orbit_class_type": "AMO",
            "orbit_class_description": "Near-Earth asteroid orbits similar to that of 1221 Amor",
            "orbit_class_range": "1.017 AU < q (perihelion) < 1.3 AU"
        }
    },
    "is_sentry_object": false
}